IRIDIUM 36              
1 24967U 97056C   24209.23585033  .00000695  00000+0  22844-3 0  9993
2 24967  86.3985 309.4809 0002134  89.8456 270.2986 14.36913053405549
IRIDIUM 39              
1 25042U 97069D   24209.15752113  .00001182  00000+0  31189-3 0  9992
2 25042  86.3945 350.4413 0016642 316.2019  43.7863 14.48097618401904
IRIDIUM 38              
1 25043U 97069E   24209.16126506  .00000790  00000+0  25824-3 0  9998
2 25043  86.3974   9.8614 0003922  89.0290 271.1357 14.37358746399257
IRIDIUM 42              
1 25077U 97077A   24209.19185804  .00000745  00000+0  25177-3 0  9994
2 25077  86.3972  15.6155 0002750  93.8055 266.3456 14.35649462394557
IRIDIUM 44              
1 25078U 97077B   24209.25413388  .00000763  00000+0  23874-3 0  9995
2 25078  86.3980 358.3932 0003119  56.7186 303.4312 14.39498304396940
IRIDIUM 45              
1 25104U 97082A   24208.94094065  .00019090  00000+0  10232-2 0  9999
2 25104  86.3767 203.5728 0158695  94.6322 267.3057 15.04569488402835
IRIDIUM 24              
1 25105U 97082B   24209.43165979  .00000823  00000+0  24832-3 0  9994
2 25105  86.3905 217.8362 0013716  74.2542 286.0170 14.41285765396675
IRIDIUM 51              
1 25262U 98018A   24209.41296434  .00024271  00000+0  10647-2 0  9998
2 25262  86.3956 213.0415 0141269  35.8046 325.2561 15.13181227397713
