<?xml version="1.0" encoding="UTF-8"?>
<ndm xmlns:xsi="http://www.w3.org/2001/XMLSchema-instance" xsi:noNamespaceSchemaLocation="https://sanaregistry.org/r/ndmxml_unqualified/ndmxml-2.0.0-master-2.0.xsd">
<omm id="CCSDS_OMM_VERS" version="2.0">
<header><CREATION_DATE/><ORIGINATOR/></header><body><segment><metadata><OBJECT_NAME>IRIDIUM 36</OBJECT_NAME><OBJECT_ID>1997-056C</OBJECT_ID><CENTER_NAME>EARTH</CENTER_NAME><REF_FRAME>TEME</REF_FRAME><TIME_SYSTEM>UTC</TIME_SYSTEM><MEAN_ELEMENT_THEORY>SGP4</MEAN_ELEMENT_THEORY></metadata><data><meanElements><EPOCH>2024-07-27T05:39:37.468512</EPOCH><MEAN_MOTION>14.36913053</MEAN_MOTION><ECCENTRICITY>.0002134</ECCENTRICITY><INCLINATION>86.3985</INCLINATION><RA_OF_ASC_NODE>309.4809</RA_OF_ASC_NODE><ARG_OF_PERICENTER>89.8456</ARG_OF_PERICENTER><MEAN_ANOMALY>270.2986</MEAN_ANOMALY></meanElements><tleParameters><EPHEMERIS_TYPE>0</EPHEMERIS_TYPE><CLASSIFICATION_TYPE>U</CLASSIFICATION_TYPE><NORAD_CAT_ID>24967</NORAD_CAT_ID><ELEMENT_SET_NO>999</ELEMENT_SET_NO><REV_AT_EPOCH>40554</REV_AT_EPOCH><BSTAR>.22844E-3</BSTAR><MEAN_MOTION_DOT>.695E-5</MEAN_MOTION_DOT><MEAN_MOTION_DDOT>0</MEAN_MOTION_DDOT></tleParameters></data></segment></body></omm>
<omm id="CCSDS_OMM_VERS" version="2.0">
<header><CREATION_DATE/><ORIGINATOR/></header><body><segment><metadata><OBJECT_NAME>IRIDIUM 39</OBJECT_NAME><OBJECT_ID>1997-069D</OBJECT_ID><CENTER_NAME>EARTH</CENTER_NAME><REF_FRAME>TEME</REF_FRAME><TIME_SYSTEM>UTC</TIME_SYSTEM><MEAN_ELEMENT_THEORY>SGP4</MEAN_ELEMENT_THEORY></metadata><data><meanElements><EPOCH>2024-07-27T03:46:49.825632</EPOCH><MEAN_MOTION>14.48097618</MEAN_MOTION><ECCENTRICITY>.0016642</ECCENTRICITY><INCLINATION>86.3945</INCLINATION><RA_OF_ASC_NODE>350.4413</RA_OF_ASC_NODE><ARG_OF_PERICENTER>316.2019</ARG_OF_PERICENTER><MEAN_ANOMALY>43.7863</MEAN_ANOMALY></meanElements><tleParameters><EPHEMERIS_TYPE>0</EPHEMERIS_TYPE><CLASSIFICATION_TYPE>U</CLASSIFICATION_TYPE><NORAD_CAT_ID>25042</NORAD_CAT_ID><ELEMENT_SET_NO>999</ELEMENT_SET_NO><REV_AT_EPOCH>40190</REV_AT_EPOCH><BSTAR>.31189E-3</BSTAR><MEAN_MOTION_DOT>.1182E-4</MEAN_MOTION_DOT><MEAN_MOTION_DDOT>0</MEAN_MOTION_DDOT></tleParameters></data></segment></body></omm>
<omm id="CCSDS_OMM_VERS" version="2.0">
<header><CREATION_DATE/><ORIGINATOR/></header><body><segment><metadata><OBJECT_NAME>IRIDIUM 38</OBJECT_NAME><OBJECT_ID>1997-069E</OBJECT_ID><CENTER_NAME>EARTH</CENTER_NAME><REF_FRAME>TEME</REF_FRAME><TIME_SYSTEM>UTC</TIME_SYSTEM><MEAN_ELEMENT_THEORY>SGP4</MEAN_ELEMENT_THEORY></metadata><data><meanElements><EPOCH>2024-07-27T03:52:13.301184</EPOCH><MEAN_MOTION>14.37358746</MEAN_MOTION><ECCENTRICITY>.0003922</ECCENTRICITY><INCLINATION>86.3974</INCLINATION><RA_OF_ASC_NODE>9.8614</RA_OF_ASC_NODE><ARG_OF_PERICENTER>89.0290</ARG_OF_PERICENTER><MEAN_ANOMALY>271.1357</MEAN_ANOMALY></meanElements><tleParameters><EPHEMERIS_TYPE>0</EPHEMERIS_TYPE><CLASSIFICATION_TYPE>U</CLASSIFICATION_TYPE><NORAD_CAT_ID>25043</NORAD_CAT_ID><ELEMENT_SET_NO>999</ELEMENT_SET_NO><REV_AT_EPOCH>39925</REV_AT_EPOCH><BSTAR>.25824E-3</BSTAR><MEAN_MOTION_DOT>.79E-5</MEAN_MOTION_DOT><MEAN_MOTION_DDOT>0</MEAN_MOTION_DDOT></tleParameters></data></segment></body></omm>
<omm id="CCSDS_OMM_VERS" version="2.0">
<header><CREATION_DATE/><ORIGINATOR/></header><body><segment><metadata><OBJECT_NAME>IRIDIUM 42</OBJECT_NAME><OBJECT_ID>1997-077A</OBJECT_ID><CENTER_NAME>EARTH</CENTER_NAME><REF_FRAME>TEME</REF_FRAME><TIME_SYSTEM>UTC</TIME_SYSTEM><MEAN_ELEMENT_THEORY>SGP4</MEAN_ELEMENT_THEORY></metadata><data><meanElements><EPOCH>2024-07-27T04:36:16.534656</EPOCH><MEAN_MOTION>14.35649462</MEAN_MOTION><ECCENTRICITY>.000275</ECCENTRICITY><INCLINATION>86.3972</INCLINATION><RA_OF_ASC_NODE>15.6155</RA_OF_ASC_NODE><ARG_OF_PERICENTER>93.8055</ARG_OF_PERICENTER><MEAN_ANOMALY>266.3456</MEAN_ANOMALY></meanElements><tleParameters><EPHEMERIS_TYPE>0</EPHEMERIS_TYPE><CLASSIFICATION_TYPE>U</CLASSIFICATION_TYPE><NORAD_CAT_ID>25077</NORAD_CAT_ID><ELEMENT_SET_NO>999</ELEMENT_SET_NO><REV_AT_EPOCH>39455</REV_AT_EPOCH><BSTAR>.25177E-3</BSTAR><MEAN_MOTION_DOT>.745E-5</MEAN_MOTION_DOT><MEAN_MOTION_DDOT>0</MEAN_MOTION_DDOT></tleParameters></data></segment></body></omm>
<omm id="CCSDS_OMM_VERS" version="2.0">
<header><CREATION_DATE/><ORIGINATOR/></header><body><segment><metadata><OBJECT_NAME>IRIDIUM 44</OBJECT_NAME><OBJECT_ID>1997-077B</OBJECT_ID><CENTER_NAME>EARTH</CENTER_NAME><REF_FRAME>TEME</REF_FRAME><TIME_SYSTEM>UTC</TIME_SYSTEM><MEAN_ELEMENT_THEORY>SGP4</MEAN_ELEMENT_THEORY></metadata><data><meanElements><EPOCH>2024-07-27T06:05:57.167232</EPOCH><MEAN_MOTION>14.39498304</MEAN_MOTION><ECCENTRICITY>.0003119</ECCENTRICITY><INCLINATION>86.3980</INCLINATION><RA_OF_ASC_NODE>358.3932</RA_OF_ASC_NODE><ARG_OF_PERICENTER>56.7186</ARG_OF_PERICENTER><MEAN_ANOMALY>303.4312</MEAN_ANOMALY></meanElements><tleParameters><EPHEMERIS_TYPE>0</EPHEMERIS_TYPE><CLASSIFICATION_TYPE>U</CLASSIFICATION_TYPE><NORAD_CAT_ID>25078</NORAD_CAT_ID><ELEMENT_SET_NO>999</ELEMENT_SET_NO><REV_AT_EPOCH>39694</REV_AT_EPOCH><BSTAR>.23874E-3</BSTAR><MEAN_MOTION_DOT>.763E-5</MEAN_MOTION_DOT><MEAN_MOTION_DDOT>0</MEAN_MOTION_DDOT></tleParameters></data></segment></body></omm>
<omm id="CCSDS_OMM_VERS" version="2.0">
<header><CREATION_DATE/><ORIGINATOR/></header><body><segment><metadata><OBJECT_NAME>IRIDIUM 45</OBJECT_NAME><OBJECT_ID>1997-082A</OBJECT_ID><CENTER_NAME>EARTH</CENTER_NAME><REF_FRAME>TEME</REF_FRAME><TIME_SYSTEM>UTC</TIME_SYSTEM><MEAN_ELEMENT_THEORY>SGP4</MEAN_ELEMENT_THEORY></metadata><data><meanElements><EPOCH>2024-07-26T22:34:57.272160</EPOCH><MEAN_MOTION>15.04569488</MEAN_MOTION><ECCENTRICITY>.0158695</ECCENTRICITY><INCLINATION>86.3767</INCLINATION><RA_OF_ASC_NODE>203.5728</RA_OF_ASC_NODE><ARG_OF_PERICENTER>94.6322</ARG_OF_PERICENTER><MEAN_ANOMALY>267.3057</MEAN_ANOMALY></meanElements><tleParameters><EPHEMERIS_TYPE>0</EPHEMERIS_TYPE><CLASSIFICATION_TYPE>U</CLASSIFICATION_TYPE><NORAD_CAT_ID>25104</NORAD_CAT_ID><ELEMENT_SET_NO>999</ELEMENT_SET_NO><REV_AT_EPOCH>40283</REV_AT_EPOCH><BSTAR>.10232E-2</BSTAR><MEAN_MOTION_DOT>.1909E-3</MEAN_MOTION_DOT><MEAN_MOTION_DDOT>0</MEAN_MOTION_DDOT></tleParameters></data></segment></body></omm>
<omm id="CCSDS_OMM_VERS" version="2.0">
<header><CREATION_DATE/><ORIGINATOR/></header><body><segment><metadata><OBJECT_NAME>IRIDIUM 24</OBJECT_NAME><OBJECT_ID>1997-082B</OBJECT_ID><CENTER_NAME>EARTH</CENTER_NAME><REF_FRAME>TEME</REF_FRAME><TIME_SYSTEM>UTC</TIME_SYSTEM><MEAN_ELEMENT_THEORY>SGP4</MEAN_ELEMENT_THEORY></metadata><data><meanElements><EPOCH>2024-07-27T10:21:35.405856</EPOCH><MEAN_MOTION>14.41285765</MEAN_MOTION><ECCENTRICITY>.0013716</ECCENTRICITY><INCLINATION>86.3905</INCLINATION><RA_OF_ASC_NODE>217.8362</RA_OF_ASC_NODE><ARG_OF_PERICENTER>74.2542</ARG_OF_PERICENTER><MEAN_ANOMALY>286.0170</MEAN_ANOMALY></meanElements><tleParameters><EPHEMERIS_TYPE>0</EPHEMERIS_TYPE><CLASSIFICATION_TYPE>U</CLASSIFICATION_TYPE><NORAD_CAT_ID>25105</NORAD_CAT_ID><ELEMENT_SET_NO>999</ELEMENT_SET_NO><REV_AT_EPOCH>39667</REV_AT_EPOCH><BSTAR>.24832E-3</BSTAR><MEAN_MOTION_DOT>.823E-5</MEAN_MOTION_DOT><MEAN_MOTION_DDOT>0</MEAN_MOTION_DDOT></tleParameters></data></segment></body></omm>
<omm id="CCSDS_OMM_VERS" version="2.0">
<header><CREATION_DATE/><ORIGINATOR/></header><body><segment><metadata><OBJECT_NAME>IRIDIUM 51</OBJECT_NAME><OBJECT_ID>1998-018A</OBJECT_ID><CENTER_NAME>EARTH</CENTER_NAME><REF_FRAME>TEME</REF_FRAME><TIME_SYSTEM>UTC</TIME_SYSTEM><MEAN_ELEMENT_THEORY>SGP4</MEAN_ELEMENT_THEORY></metadata><data><meanElements><EPOCH>2024-07-27T09:54:40.118976</EPOCH><MEAN_MOTION>15.13181227</MEAN_MOTION><ECCENTRICITY>.0141269</ECCENTRICITY><INCLINATION>86.3956</INCLINATION><RA_OF_ASC_NODE>213.0415</RA_OF_ASC_NODE><ARG_OF_PERICENTER>35.8046</ARG_OF_PERICENTER><MEAN_ANOMALY>325.2561</MEAN_ANOMALY></meanElements><tleParameters><EPHEMERIS_TYPE>0</EPHEMERIS_TYPE><CLASSIFICATION_TYPE>U</CLASSIFICATION_TYPE><NORAD_CAT_ID>25262</NORAD_CAT_ID><ELEMENT_SET_NO>999</ELEMENT_SET_NO><REV_AT_EPOCH>39771</REV_AT_EPOCH><BSTAR>.10647E-2</BSTAR><MEAN_MOTION_DOT>.24271E-3</MEAN_MOTION_DOT><MEAN_MOTION_DDOT>0</MEAN_MOTION_DDOT></tleParameters></data></segment></body></omm>

</ndm>
